NORAD_CAT_ID,OBJECT_NAME,OBJECT_TYPE,EPOCH,MEAN_MOTION,ECCENTRICITY,INCLINATION,RA_OF_ASC_NODE,ARG_OF_PERICENTER,MEAN_ANOMALY,BSTAR,MEAN_MOTION_DOT,MEAN_MOTION_DDOT,TLE_LINE0,TLE_LINE1,TLE_LINE2,SEMIMAJOR_AXIS,PERIOD,APOGEE,PERIGEE,DECAYED
55312.0,STARLINK-5296,PAYLOAD,2023-05-20 04:09:28,15.69925988,0.0003224,69.9983,87.9755,261.0971,98.9859,6.049e-06,5.15e-06,0.0,0 STARLINK-5296,1 55312U 23010AV  23140.17324754  .00000515  00000-0  60490-5 0  9990,2 55312  69.9983  87.9755 0003224 261.0971  98.9859 15.69925988 19482,6737.246,91.724,361.283,356.939,0.0
55312.0,STARLINK-5296,PAYLOAD,2023-05-20 20:58:44,15.6993009,0.0003265,69.9988,86.0051,263.4527,96.6297,1.5933e-05,1.704e-05,0.0,0 STARLINK-5296,1 55312U 23010AV  23140.87412348  .00001704  00000-0  15933-4 0  9996,2 55312  69.9988  86.0051 0003265 263.4527  96.6297 15.69930090 20780,6737.234,91.724,361.299,356.899,0.0
55312.0,STARLINK-5296,PAYLOAD,2023-05-21 03:05:46,15.6990378,0.0002705,70.0003,85.2896,250.8871,109.2032,-1.2783e-05,-1.747e-05,0.0,0 STARLINK-5296,1 55312U 23010AV  23141.12901312 -.00001747  00000-0 -12783-4 0  9998,2 55312  70.0003  85.2896 0002705 250.8871 109.2032 15.69903780 19635,6737.309,91.725,360.997,357.352,0.0
55312.0,STARLINK-5296,PAYLOAD,2023-05-21 06:09:17,15.69900455,0.0002915,69.9994,84.9313,258.5166,101.5702,-1.5879e-05,-2.119e-05,0.0,0 STARLINK-5296,1 55312U 23010AV  23141.25645362 -.00002119  00000-0 -15879-4 0  9995,2 55312  69.9994  84.9313 0002915 258.5166 101.5702 15.69900455 19653,6737.319,91.726,361.148,357.22,0.0
55312.0,STARLINK-5296,PAYLOAD,2023-05-21 19:55:02,15.6991917,0.0003457,69.9984,83.3183,269.2092,90.8708,-3.7019e-06,-6.58e-06,0.0,0 STARLINK-5296,1 55312U 23010AV  23141.82989148 -.00000658  00000-0 -37019-5 0  9998,2 55312  69.9984  83.3183 0003457 269.2092  90.8708 15.69919170 20932,6737.265,91.724,361.459,356.801,0.0
55312.0,STARLINK-5296,PAYLOAD,2023-05-21 22:58:31,15.69934564,0.0002907,69.9989,82.96,250.7376,109.3505,1.2737e-05,1.32e-05,0.0,0 STARLINK-5296,1 55312U 23010AV  23141.95731152  .00001320  00000-0  12737-4 0  9996,2 55312  69.9989  82.9600 0002907 250.7376 109.3505 15.69934564 19769,6737.221,91.724,361.045,357.128,0.0
55312.0,STARLINK-5296,PAYLOAD,2023-05-22 06:37:17,15.69933431,0.0002935,69.9991,82.0644,254.1082,105.979,1.1941e-05,1.224e-05,0.0,0 STARLINK-5296,1 55312U 23010AV  23142.27589509  .00001224  00000-0  11941-4 0  9998,2 55312  69.9991  82.0644 0002935 254.1082 105.9790 15.69933431 21004,6737.224,91.724,361.067,357.112,0.0
55312.0,STARLINK-5296,PAYLOAD,2023-05-22 23:26:34,15.6991309,0.0002824,70.0001,80.0937,271.3963,88.6909,2.2741e-05,2.521e-05,0.0,0 STARLINK-5296,1 55312U 23010AV  23142.97678783  .00002521  00000-0  22741-4 0  9999,2 55312  70.0001  80.0937 0002824 271.3963  88.6909 15.69913090 19924,6737.283,91.725,361.05,357.245,0.0
55312.0,STARLINK-5296,PAYLOAD,2023-05-23 05:33:36,15.69894,0.0003196,69.9997,79.3775,277.164,82.9192,7.2439e-07,-1.26e-06,0.0,0 STARLINK-5296,1 55312U 23010AV  23143.23167206 -.00000126  00000-0  72439-6 0  9993,2 55312  69.9997  79.3775 0003196 277.1640  82.9192 15.69894000 19969,6737.337,91.726,361.356,357.049,0.0
55312.0,STARLINK-5296,PAYLOAD,2023-05-23 22:22:51,15.69928051,0.0003649,69.9983,77.4044,270.3867,89.691,-9.3488e-06,-1.337e-05,0.0,0 STARLINK-5296,1 55312U 23010AV  23143.93254008 -.00001337  00000-0 -93488-5 0  9999,2 55312  69.9983  77.4044 0003649 270.3867  89.6910 15.69928051 20071,6737.24,91.724,361.563,356.646,0.0
55312.0,STARLINK-5296,PAYLOAD,2023-05-24 06:01:36,15.69929001,0.0002946,69.9998,76.5115,276.1648,83.9212,-7.0852e-06,-1.064e-05,0.0,0 STARLINK-5296,1 55312U 23010AV  23144.25112232 -.00001064  00000-0 -70852-5 0  9994,2 55312  69.9998  76.5115 0002946 276.1648  83.9212 15.69929001 21312,6737.237,91.724,361.087,357.117,0.0
55312.0,STARLINK-5296,PAYLOAD,2023-05-25 21:47:10,15.69917204,0.000373,69.9987,71.854,271.1824,88.8944,-8.0993e-06,-1.187e-05,0.0,0 STARLINK-5296,1 55312U 23010AV  23145.90776491 -.00001187  00000-0 -80993-5 0  9993,2 55312  69.9987  71.8540 0003730 271.1824  88.8944 15.69917204 21579,6737.271,91.725,361.649,356.623,0.0
55312.0,STARLINK-5296,PAYLOAD,2023-05-26 03:54:10,15.69928745,0.0003826,69.9979,71.1375,266.3927,93.6831,-2.7534e-07,-2.46e-06,0.0,0 STARLINK-5296,1 55312U 23010AV  23146.16262280 -.00000246  00000-0 -27534-6 0  9996,2 55312  69.9979  71.1375 0003826 266.3927  93.6831 15.69928745 20429,6737.238,91.724,361.681,356.525,0.0
55312.0,STARLINK-5296,PAYLOAD,2023-05-26 05:25:55,15.69929994,0.0003675,69.9982,70.9565,262.7631,97.3147,2.824e-06,1.27e-06,0.0,0 STARLINK-5296,1 55312U 23010AV  23146.22633768  .00000127  00000-0  28240-5 0  9996,2 55312  69.9982  70.9565 0003675 262.7631  97.3147 15.69929994 21626,6737.234,91.724,361.575,356.623,0.0
55312.0,STARLINK-5296,PAYLOAD,2023-05-26 22:15:11,15.69933435,0.000377,69.9975,68.9858,262.9806,97.0961,3.143e-06,1.65e-06,0.0,0 STARLINK-5296,1 55312U 23010AV  23146.92721765  .00000165  00000-0  31430-5 0  9995,2 55312  69.9975  68.9858 0003770 262.9806  97.0961 15.69933435 21730,6737.224,91.724,361.629,356.55,0.0
55312.0,STARLINK-5296,PAYLOAD,2023-05-27 04:22:12,15.69927256,0.0003615,69.9987,68.2698,269.2491,90.829,-4.9621e-06,-8.1e-06,0.0,0 STARLINK-5296,1 55312U 23010AV  23147.18209099 -.00000810  00000-0 -49621-5 0  9995,2 55312  69.9987  68.2698 0003615 269.2491  90.8290 15.69927256 20588,6737.242,91.724,361.543,356.672,0.0
55312.0,STARLINK-5296,PAYLOAD,2023-05-27 21:11:28,15.69936851,0.0003853,69.9989,66.2991,268.8005,91.2749,-9.95e-06,-1.41e-05,0.0,0 STARLINK-5296,1 55312U 23010AV  23147.88297204 -.00001410  00000-0 -99500-5 0  9995,2 55312  69.9989  66.2991 0003853 268.8005  91.2749 15.69936851 21883,6737.215,91.723,361.676,356.484,0.0
55312.0,STARLINK-5296,PAYLOAD,2023-05-28 03:18:29,15.69919462,0.0003699,69.999,65.5826,268.2304,91.8468,1.7689e-05,1.914e-05,0.0,0 STARLINK-5296,1 55312U 23010AV  23148.13784215  .00001914  00000-0  17689-4 0  9991,2 55312  69.9990  65.5826 0003699 268.2304  91.8468 15.69919462 21926,6737.264,91.724,361.622,356.637,0.0
55312.0,STARLINK-5296,PAYLOAD,2023-05-28 20:07:46,15.69920097,0.0003675,69.9986,63.6124,266.7337,93.3438,2.4423e-06,8.1e-07,0.0,0 STARLINK-5296,1 55312U 23010AV  23148.83872818  .00000081  00000-0  24423-5 0  9994,2 55312  69.9986  63.6124 0003675 266.7337  93.3438 15.69920097 20844,6737.263,91.724,361.604,356.652,0.0
55312.0,STARLINK-5296,PAYLOAD,2023-05-28 21:39:31,15.6991214,0.0003663,69.9982,63.4322,266.018,94.0597,1.7043e-05,1.836e-05,0.0,0 STARLINK-5296,1 55312U 23010AV  23148.90244554  .00001836  00000-0  17043-4 0  9990,2 55312  69.9982  63.4322 0003663 266.0180  94.0597 15.69912140 22042,6737.285,91.725,361.618,356.682,0.0
55312.0,STARLINK-5296,PAYLOAD,2023-05-29 03:46:31,15.69920816,0.0003419,69.9983,62.7162,268.4451,91.6353,4.7972e-06,3.64e-06,0.0,0 STARLINK-5296,1 55312U 23010AV  23149.15731165  .00000364  00000-0  47972-5 0  9997,2 55312  69.9983  62.7162 0003419 268.4451  91.6353 15.69920816 22089,6737.261,91.724,361.429,356.822,0.0
55312.0,STARLINK-5296,PAYLOAD,2023-05-29 20:35:47,15.69923955,0.0003516,69.9985,60.7466,268.2036,91.8757,2.1653e-06,4.7e-07,0.0,0 STARLINK-5296,1 55312U 23010AV  23149.85819429  .00000047  00000-0  21653-5 0  9990,2 55312  69.9985  60.7466 0003516 268.2036  91.8757 15.69923955 22190,6737.252,91.724,361.485,356.748,0.0
55312.0,STARLINK-5296,PAYLOAD,2023-05-30 04:14:34,15.69905969,0.0003219,69.9998,59.8514,269.9351,90.1476,-1.3747e-05,-1.864e-05,0.0,0 STARLINK-5296,1 55312U 23010AV  23150.17679226 -.00001864  00000-0 -13747-4 0  9990,2 55312  69.9998  59.8514 0003219 269.9351  90.1476 15.69905969 21054,6737.303,91.725,361.337,356.999,0.0
55312.0,STARLINK-5296,PAYLOAD,2023-05-30 21:03:50,15.6992038,0.0003551,69.9986,57.8799,269.1003,90.9786,1.9908e-06,2.6e-07,0.0,0 STARLINK-5296,1 55312U 23010AV  23150.87766519  .00000026  00000-0  19908-5 0  9992,2 55312  69.9986  57.8799 0003551 269.1003  90.9786 15.69920380 22359,6737.262,91.724,361.519,356.734,0.0
55312.0,STARLINK-5296,PAYLOAD,2023-05-31 01:39:04,15.69928137,0.0003153,69.999,57.3427,257.9054,102.1788,1.2724e-05,1.318e-05,0.0,0 STARLINK-5296,1 55312U 23010AV  23151.06880739  .00001318  00000-0  12724-4 0  9998,2 55312  69.9990  57.3427 0003153 257.9054 102.1788 15.69928137 21193,6737.24,91.724,361.229,356.98,0.0
55312.0,STARLINK-5296,PAYLOAD,2023-05-31 03:10:50,15.69927981,0.0003444,69.9984,57.1633,262.0588,98.0217,1.078e-05,1.084e-05,0.0,0 STARLINK-5296,1 55312U 23010AV  23151.13252481  .00001084  00000-0  10780-4 0  9993,2 55312  69.9984  57.1633 0003444 262.0588  98.0217 15.69927981 22394,6737.24,91.724,361.425,356.785,0.0
55312.0,STARLINK-5296,PAYLOAD,2023-05-31 18:28:21,15.69923902,0.000342,69.9983,55.3714,261.9268,98.154,-3.7786e-06,-6.67e-06,0.0,0 STARLINK-5296,1 55312U 23010AV  23151.76969809 -.00000667  00000-0 -37786-5 0  9995,2 55312  69.9983  55.3714 0003420 261.9268  98.1540 15.69923902 21309,6737.252,91.724,361.421,356.813,0.0
55312.0,STARLINK-5296,PAYLOAD,2023-05-31 20:00:06,15.69924613,0.0003394,69.9985,55.1923,261.3619,98.7192,-2.7508e-06,-5.44e-06,0.0,0 STARLINK-5296,1 55312U 23010AV  23151.83341399 -.00000544  00000-0 -27508-5 0  9996,2 55312  69.9985  55.1923 0003394 261.3619  98.7192 15.69924613 22507,6737.25,91.724,361.401,356.828,0.0
55312.0,STARLINK-5296,PAYLOAD,2023-06-01 02:07:06,15.69931288,0.0003324,69.9983,54.4752,259.4614,100.6207,3.9929e-06,2.67e-06,0.0,0 STARLINK-5296,1 55312U 23010AV  23152.08827431  .00000267  00000-0  39929-5 0  9990,2 55312  69.9983  54.4752 0003324 259.4614 100.6207 15.69931288 21351,6737.231,91.724,361.335,356.856,0.0
55312.0,STARLINK-5296,PAYLOAD,2023-06-01 03:38:53,15.69911359,0.0003195,69.9989,54.2972,271.429,88.654,-1.6421e-05,-2.185e-05,0.0,0 STARLINK-5296,1 55312U 23010AV  23152.15200891 -.00002185  00000-0 -16421-4 0  9997,2 55312  69.9989  54.2972 0003195 271.4290  88.6540 15.69911359 22554,6737.288,91.725,361.305,357.0,0.0
